sat13002
1 13002U 81120F   20046.87756006  .00000013  00000-0  36786-4 0  9997
2 13002  82.9618 137.9920 0052041 193.9196 289.1750 12.13800465690808
